NORAD_CAT_ID,OBJECT_NAME,OBJECT_TYPE,EPOCH,MEAN_MOTION,ECCENTRICITY,INCLINATION,RA_OF_ASC_NODE,ARG_OF_PERICENTER,MEAN_ANOMALY,BSTAR,MEAN_MOTION_DOT,MEAN_MOTION_DDOT,TLE_LINE0,TLE_LINE1,TLE_LINE2,SEMIMAJOR_AXIS,PERIOD,APOGEE,PERIGEE,DECAYED
53183.0,STARLINK-4268,PAYLOAD,2022-07-31 14:00:01,15.73197098,0.0001934,53.2189,337.5453,318.3697,254.4782,2.7371e-05,3.222e-05,0.0,0 STARLINK-4268,1 53183U 22083BD  22212.58334491  .00003222  00000-0  27371-4 0  9994,2 53183  53.2189 337.5453 0001934 318.3697 254.4782 15.73197098  1300,6727.903,91.533,351.07,348.467,0.0
53183.0,STARLINK-4268,PAYLOAD,2022-07-31 22:00:00,15.73228234,0.0001992,53.2184,335.896,322.3245,339.44,-0.00064053,-0.00089679,0.0,0 STARLINK-4268,1 53183U 22083BD  22212.91667824 -.00089679  00000-0 -64053-3 0  9999,2 53183  53.2184 335.8960 0001992 322.3245 339.4400 15.73228234  1305,6727.815,91.532,351.02,348.339,0.0
53183.0,STARLINK-4268,PAYLOAD,2022-08-01 14:00:01,15.7319352,0.0001943,53.2184,332.5976,326.5508,153.0346,9.6714e-06,7.36e-06,0.0,0 STARLINK-4268,1 53183U 22083BD  22213.58334491  .00000736  00000-0  96714-5 0  9990,2 53183  53.2184 332.5976 0001943 326.5508 153.0346 15.73193520  3018,6727.9140000000025,91.534,351.086,348.471,0.0
53183.0,STARLINK-4268,PAYLOAD,2022-08-01 22:00:00,15.73234824,0.0002024,53.2184,330.9481,329.6943,238.8103,-0.00025692,-0.00036578,0.0,0 STARLINK-4268,1 53183U 22083BD  22213.91667824 -.00036578  00000-0 -25692-3 0  9996,2 53183  53.2184 330.9481 0002024 329.6943 238.8103 15.73234824  1305,6727.795999999999,91.531,351.023,348.2990000000001,0.0
53183.0,STARLINK-4268,PAYLOAD,2022-08-02 14:00:01,15.73192857,0.0002023,53.2187,327.6493,340.5028,45.8735,-9.6183e-06,-1.97e-05,0.0,0 STARLINK-4268,1 53183U 22083BD  22214.58334491 -.00001970  00000-0 -96183-5 0  9994,2 53183  53.2187 327.6493 0002023 340.5028  45.8735 15.73192857  1305,6727.916,91.534,351.142,348.4190000000001,0.0
53183.0,STARLINK-4268,PAYLOAD,2022-08-03 04:00:00,15.73227678,0.0001924,53.2182,324.7612,341.4822,110.5352,-0.00018017,-0.00025861,0.0,0 STARLINK-4268,1 53183U 22083BD  22215.16667824 -.00025861  00000-0 -18017-3 0  9991,2 53183  53.2182 324.7612 0001924 341.4822 110.5352 15.73227678  3264,6727.816,91.532,350.976,348.38699999999994,0.0
53183.0,STARLINK-4268,PAYLOAD,2022-08-03 14:00:01,15.73185178,0.0002106,53.2181,322.7012,350.4972,302.7056,6.2252e-05,8.119e-05,0.0,0 STARLINK-4268,1 53183U 22083BD  22215.58334491  .00008119  00000-0  62252-4 0  9994,2 53183  53.2181 322.7012 0002106 350.4972 302.7056 15.73185178  1301,6727.937,91.534,351.219,348.386,0.0
53183.0,STARLINK-4268,PAYLOAD,2022-08-03 20:00:01,15.732008300000002,0.0002241,53.218,321.4641,349.4777,280.4141,0.00026846,0.00037227,0.0,0 STARLINK-4268,1 53183U 22083BD  22215.83334491  .00037227  00000-0  26846-3 0  9992,2 53183  53.2180 321.4641 0002241 349.4777 280.4141 15.73200830  3363,6727.893,91.533,351.266,348.25,0.0
53183.0,STARLINK-4268,PAYLOAD,2022-08-03 22:00:01,15.73225853,0.00022,53.2181,321.0512,350.3835,31.8022,-4.6173e-05,-7.104e-05,0.0,0 STARLINK-4268,1 53183U 22083BD  22215.91668981 -.00007104  00000-0 -46173-4 0  9994,2 53183  53.2181 321.0512 0002200 350.3835  31.8022 15.73225853  1308,6727.821,91.532,351.167,348.206,0.0
53183.0,STARLINK-4268,PAYLOAD,2022-08-04 06:00:00,15.73218899,0.000202,53.2185,319.4001,355.3967,115.6754,-0.0002703,-0.00038417,0.0,0 STARLINK-4268,1 53183U 22083BD  22216.25001157 -.00038417  00000-0 -27030-3 0  9999,2 53183  53.2185 319.4001 0002020 355.3967 115.6754 15.73218899  3438,6727.840999999999,91.532,351.065,348.347,0.0
53183.0,STARLINK-4268,PAYLOAD,2022-08-04 14:00:01,15.73186089,0.0002346999999999,53.2185,317.7526,1.6834,198.3301,0.00013922,0.00018951,0.0,0 STARLINK-4268,1 53183U 22083BD  22216.58334491  .00018951  00000-0  13922-3 0  9999,2 53183  53.2185 317.7526 0002347   1.6834 198.3301 15.73186089  1302,6727.935,91.534,351.379,348.221,0.0
53183.0,STARLINK-4268,PAYLOAD,2022-08-04 20:00:01,15.73233096,0.0002409,53.218,316.5155,2.7463,173.9469,-0.00054584,-0.00076652,0.0,0 STARLINK-4268,1 53183U 22083BD  22216.83334491 -.00076652  00000-0 -54584-3 0  9990,2 53183  53.2180 316.5155 0002409   2.7463 173.9469 15.73233096  3522,6727.801,91.531,351.287,348.045,0.0
53183.0,STARLINK-4268,PAYLOAD,2022-08-04 22:00:00,15.73238942,0.0002339,53.2181,316.1024,3.3547,285.5722,-0.00079701,-0.00111212,0.0,0 STARLINK-4268,1 53183U 22083BD  22216.91667824 -.00111212  00000-0 -79701-3 0  9998,2 53183  53.2181 316.1024 0002339   3.3547 285.5722 15.73238942  1307,6727.784000000002,91.531,351.223,348.076,0.0
53183.0,STARLINK-4268,PAYLOAD,2022-08-05 04:00:00,15.73137966,0.0002206,53.218,314.8641,7.0278,258.616,0.00055763,0.00078166,0.0,0 STARLINK-4268,1 53183U 22083BD  22217.16667824  .00078166  00000-0  55763-3 0  9996,2 53183  53.2180 314.8641 0002206   7.0278 258.6160 15.73137966  3573,6728.071999999999,91.537,351.421,348.45300000000015,0.0
53183.0,STARLINK-4268,PAYLOAD,2022-08-05 14:00:01,15.7319027,0.0002493,53.218,312.8045,8.2056,98.6212,0.00018192,0.00024978,0.0,0 STARLINK-4268,1 53183U 22083BD  22217.58335648  .00024978  00000-0  18192-3 0  9995,2 53183  53.2180 312.8045 0002493   8.2056  98.6212 15.73190270  1300,6727.9230000000025,91.534,351.465,348.111,0.0
53183.0,STARLINK-4268,PAYLOAD,2022-08-05 22:00:00,15.73236686,0.0002495,53.2181,311.1541,8.0474,187.639,-5.0814e-05,-7.759e-05,0.0,0 STARLINK-4268,1 53183U 22083BD  22217.91667824 -.00007759  00000-0 -50814-4 0  9994,2 53183  53.2181 311.1541 0002495   8.0474 187.6390 15.73236686  3690,6727.791,91.531,351.334,347.977,0.0
53183.0,STARLINK-4268,PAYLOAD,2022-08-06 14:00:01,15.73195469,0.0002755,53.2186,307.8558,15.4277,358.1959,0.00011642,0.00015746,0.0,0 STARLINK-4268,1 53183U 22083BD  22218.58334491  .00015746  00000-0  11642-3 0  9997,2 53183  53.2186 307.8558 0002755  15.4277 358.1959 15.73195469  1302,6727.908,91.533,351.62699999999984,347.92,0.0
53183.0,STARLINK-4268,PAYLOAD,2022-08-06 20:00:01,15.73244129,0.0002765,53.2182,306.6182,12.0249,338.2885,-0.00068093,-0.00095312,0.0,0 STARLINK-4268,1 53183U 22083BD  22218.83334491 -.00095312  00000-0 -68093-3 0  9996,2 53183  53.2182 306.6182 0002765  12.0249 338.2885 15.73244129  3836,6727.769,91.531,351.495,347.774,0.0
53183.0,STARLINK-4268,PAYLOAD,2022-08-06 22:00:00,15.73227003,0.0002688,53.2184,306.2052,11.9851,90.5705,-0.00060241,-0.00084438,0.0,0 STARLINK-4268,1 53183U 22083BD  22218.91667824 -.00084438  00000-0 -60241-3 0  9998,2 53183  53.2184 306.2052 0002688  11.9851  90.5705 15.73227003  1302,6727.818,91.532,351.492,347.875,0.0
53183.0,STARLINK-4268,PAYLOAD,2022-08-07 04:00:00,15.73146831,0.0002522,53.2183,304.9672,12.4372,66.8151,0.00047106,0.00065865,0.0,0 STARLINK-4268,1 53183U 22083BD  22219.16667824  .00065865  00000-0  47106-3 0  9992,2 53183  53.2183 304.9672 0002522  12.4372  66.8151 15.73146831  3880,6728.047,91.536,351.6090000000001,348.215,0.0
53183.0,STARLINK-4268,PAYLOAD,2022-08-07 11:17:18,15.73195452,0.0002776,53.2184,303.4646,13.6792,346.4303,0.00024245,0.00033539,0.0,0 STARLINK-4268,1 53183U 22083BD  22219.47035604  .00033539  00000-0  24245-3 0  9993,2 53183  53.2184 303.4646 0002776  13.6792 346.4303 15.73195452  3302,6727.908,91.533,351.641,347.905,0.0
53183.0,STARLINK-4268,PAYLOAD,2022-08-07 20:00:01,15.73256186,0.0002886,53.2182,301.67,14.2336,242.8536,-0.00062979,-0.00088321,0.0,0 STARLINK-4268,1 53183U 22083BD  22219.83334491 -.00088321  00000-0 -62979-3 0  9996,2 53183  53.2182 301.6700 0002886  14.2336 242.8536 15.73256186  3998,6727.735,91.53,351.542,347.658,0.0
53183.0,STARLINK-4268,PAYLOAD,2022-08-07 22:00:00,15.73233742,0.0002816999999999,53.2185,301.257,15.4555,353.879,-0.00042414,-0.00059825,0.0,0 STARLINK-4268,1 53183U 22083BD  22219.91667824 -.00059825  00000-0 -42414-3 0  9993,2 53183  53.2185 301.2570 0002817  15.4555 353.8790 15.73233742  1303,6727.799,91.531,351.559,347.769,0.0
53183.0,STARLINK-4268,PAYLOAD,2022-08-08 06:00:00,15.73206111,0.0002802,53.2188,299.6067,20.3995,77.8733,0.00035774,0.00049904,0.0,0 STARLINK-4268,1 53183U 22083BD  22220.25001157  .00049904  00000-0  35774-3 0  9999,2 53183  53.2188 299.6067 0002802  20.3995  77.8733 15.73206111  4060,6727.878000000002,91.533,351.62800000000016,347.858,0.0
53183.0,STARLINK-4268,PAYLOAD,2022-08-08 14:00:01,15.73254319,0.0003099,53.2189,297.9593,17.4674,169.8503,0.00014896,0.00020386,0.0,0 STARLINK-4268,1 53183U 22083BD  22220.58335648  .00020386  00000-0  14896-3 0  9995,2 53183  53.2189 297.9593 0003099  17.4674 169.8503 15.73254319  1300,6727.74,91.53,351.69,347.52,0.0
53183.0,STARLINK-4268,PAYLOAD,2022-08-08 22:00:00,15.73292763,0.0002937,53.2185,296.3084,13.7975,262.4767,-0.00089873,-0.00125423,0.0,0 STARLINK-4268,1 53183U 22083BD  22220.91667824 -.00125423  00000-0 -89873-3 0  9993,2 53183  53.2185 296.3084 0002937  13.7975 262.4767 15.73292763  1304,6727.630999999999,91.528,351.472,347.52,0.0
53183.0,STARLINK-4268,PAYLOAD,2022-08-09 04:00:00,15.73205755,0.0002836,53.2185,295.0705,13.8158,239.2093,-0.00014739,-0.00021265,0.0,0 STARLINK-4268,1 53183U 22083BD  22221.16667824 -.00021265  00000-0 -14739-3 0  9999,2 53183  53.2185 295.0705 0002836  13.8158 239.2093 15.73205755  4203,6727.879,91.533,351.652,347.836,0.0
53183.0,STARLINK-4268,PAYLOAD,2022-08-09 14:00:01,15.73172507,0.0003163,53.2183,293.0114,13.5626,80.5989,-0.00052318,-0.00073347,0.0,0 STARLINK-4268,1 53183U 22083BD  22221.58334491 -.00073347  00000-0 -52318-3 0  9999,2 53183  53.2183 293.0114 0003163  13.5626  80.5989 15.73172507  4270,6727.974,91.535,351.967,347.711,0.0
53183.0,STARLINK-4268,PAYLOAD,2022-08-09 22:00:00,15.73104809,0.0003091,53.2183,291.3605,14.773,168.2569,-5.8119e-05,-8.739e-05,0.0,0 STARLINK-4268,1 53183U 22083BD  22221.91667824 -.00008739  00000-0 -58119-4 0  9994,2 53183  53.2183 291.3605 0003091  14.7730 168.2569 15.73104809  1304,6728.167,91.539,352.111,347.952,0.0
